{
 "generated_at": "2026-07-10T08:23:00Z",
 "sources": [
  {
   "name": "CelesTrak",
   "url": "https://celestrak.org/NORAD/elements/",
   "license": "frei verfügbar; Attribution. Ursprünglich USSPACECOM/Space-Track."
  },
  {
   "name": "GCAT (J. McDowell, planet4589.org)",
   "url": "https://planet4589.org/space/gcat/",
   "license": "CC-BY 4.0"
  }
 ],
 "satellites": [
  {
   "norad": 59371,
   "name": "RESURS-P 4",
   "intl": "2024-061A",
   "group": "resource",
   "gcat": {
    "class": "C",
    "category": "IMG",
    "owner": "TSSKBP?",
    "state": "RU"
   },
   "omm": {
    "OBJECT_NAME": "RESURS-P 4",
    "OBJECT_ID": "2024-061A",
    "EPOCH": "2026-07-09T20:38:05.711712",
    "MEAN_MOTION": 15.32260625,
    "ECCENTRICITY": 0.0003223,
    "INCLINATION": 97.2754,
    "RA_OF_ASC_NODE": 138.3661,
    "ARG_OF_PERICENTER": 97.7805,
    "MEAN_ANOMALY": 262.3803,
    "EPHEMERIS_TYPE": 0,
    "CLASSIFICATION_TYPE": "U",
    "NORAD_CAT_ID": 59371,
    "ELEMENT_SET_NO": 999,
    "REV_AT_EPOCH": 12723,
    "BSTAR": 0.000068378,
    "MEAN_MOTION_DOT": 0.00002054,
    "MEAN_MOTION_DDOT": 0
   }
  },
  {
   "norad": 44233,
   "name": "RISAT-2B",
   "intl": "2019-028A",
   "group": "sar",
   "gcat": {
    "class": "C",
    "category": "IMG-R",
    "owner": "ISRO",
    "state": "IN"
   },
   "omm": {
    "OBJECT_NAME": "RISAT-2B",
    "OBJECT_ID": "2019-028A",
    "EPOCH": "2026-07-09T11:49:29.618688",
    "MEAN_MOTION": 15.01069603,
    "ECCENTRICITY": 0.0008468,
    "INCLINATION": 36.9959,
    "RA_OF_ASC_NODE": 221.7867,
    "ARG_OF_PERICENTER": 220.8512,
    "MEAN_ANOMALY": 139.1597,
    "EPHEMERIS_TYPE": 0,
    "CLASSIFICATION_TYPE": "U",
    "NORAD_CAT_ID": 44233,
    "ELEMENT_SET_NO": 999,
    "REV_AT_EPOCH": 39118,
    "BSTAR": 0.00011544,
    "MEAN_MOTION_DOT": 0.00001424,
    "MEAN_MOTION_DDOT": 0
   }
  },
  {
   "norad": 44857,
   "name": "RISAT-2BR1",
   "intl": "2019-089F",
   "group": "sar",
   "gcat": {
    "class": "C",
    "category": "IMG-R",
    "owner": "ISRO",
    "state": "IN"
   },
   "omm": {
    "OBJECT_NAME": "RISAT-2BR1",
    "OBJECT_ID": "2019-089F",
    "EPOCH": "2026-07-09T19:51:49.537152",
    "MEAN_MOTION": 15.01142044,
    "ECCENTRICITY": 0.0010339,
    "INCLINATION": 36.9614,
    "RA_OF_ASC_NODE": 337.2648,
    "ARG_OF_PERICENTER": 1.7074,
    "MEAN_ANOMALY": 358.3702,
    "EPHEMERIS_TYPE": 0,
    "CLASSIFICATION_TYPE": "U",
    "NORAD_CAT_ID": 44857,
    "ELEMENT_SET_NO": 999,
    "REV_AT_EPOCH": 36060,
    "BSTAR": 0.00017509,
    "MEAN_MOTION_DOT": 0.00002208,
    "MEAN_MOTION_DDOT": 0
   }
  },
  {
   "norad": 46905,
   "name": "RISAT-2BR2",
   "intl": "2020-081A",
   "group": "sar",
   "gcat": {
    "class": "C",
    "category": "IMG-R",
    "owner": "ISRO",
    "state": "IN"
   },
   "omm": {
    "OBJECT_NAME": "RISAT-2BR2",
    "OBJECT_ID": "2020-081A",
    "EPOCH": "2026-07-09T21:24:26.424864",
    "MEAN_MOTION": 15.01158314,
    "ECCENTRICITY": 0.0014201,
    "INCLINATION": 36.8983,
    "RA_OF_ASC_NODE": 89.4729,
    "ARG_OF_PERICENTER": 337.5609,
    "MEAN_ANOMALY": 22.451,
    "EPHEMERIS_TYPE": 0,
    "CLASSIFICATION_TYPE": "U",
    "NORAD_CAT_ID": 46905,
    "ELEMENT_SET_NO": 999,
    "REV_AT_EPOCH": 31088,
    "BSTAR": 0.0001602,
    "MEAN_MOTION_DOT": 0.00002018,
    "MEAN_MOTION_DDOT": 0
   }
  },
  {
   "norad": 43641,
   "name": "SAOCOM 1A",
   "intl": "2018-076A",
   "group": "sar",
   "gcat": {
    "class": "C",
    "category": "IMG-R",
    "owner": "CONAE",
    "state": "AR"
   },
   "omm": {
    "OBJECT_NAME": "SAOCOM 1A",
    "OBJECT_ID": "2018-076A",
    "EPOCH": "2026-07-09T19:40:09.924384",
    "MEAN_MOTION": 14.82147351,
    "ECCENTRICITY": 0.0001493,
    "INCLINATION": 97.8893,
    "RA_OF_ASC_NODE": 17.2396,
    "ARG_OF_PERICENTER": 84.7856,
    "MEAN_ANOMALY": 275.3528,
    "EPHEMERIS_TYPE": 0,
    "CLASSIFICATION_TYPE": "U",
    "NORAD_CAT_ID": 43641,
    "ELEMENT_SET_NO": 999,
    "REV_AT_EPOCH": 41945,
    "BSTAR": 0.00011929,
    "MEAN_MOTION_DOT": 0.00000897,
    "MEAN_MOTION_DDOT": 0
   }
  },
  {
   "norad": 46265,
   "name": "SAOCOM 1B",
   "intl": "2020-059A",
   "group": "sar",
   "gcat": {
    "class": "C",
    "category": "IMG-R",
    "owner": "CONAE",
    "state": "AR"
   },
   "omm": {
    "OBJECT_NAME": "SAOCOM 1B",
    "OBJECT_ID": "2020-059A",
    "EPOCH": "2026-07-09T20:25:09.340320",
    "MEAN_MOTION": 14.82154672,
    "ECCENTRICITY": 0.0001549,
    "INCLINATION": 97.8897,
    "RA_OF_ASC_NODE": 16.3664,
    "ARG_OF_PERICENTER": 80.9928,
    "MEAN_ANOMALY": 279.1461,
    "EPHEMERIS_TYPE": 0,
    "CLASSIFICATION_TYPE": "U",
    "NORAD_CAT_ID": 46265,
    "ELEMENT_SET_NO": 999,
    "REV_AT_EPOCH": 31684,
    "BSTAR": -0.0000047758,
    "MEAN_MOTION_DOT": -9e-7,
    "MEAN_MOTION_DDOT": 0
   }
  },
  {
   "norad": 31797,
   "name": "SAR-LUPE 2",
   "intl": "2007-030A",
   "group": "sar",
   "gcat": {
    "class": "D",
    "category": "IMG-R",
    "owner": "BWB",
    "state": "D"
   },
   "omm": {
    "OBJECT_NAME": "SAR-LUPE 2",
    "OBJECT_ID": "2007-030A",
    "EPOCH": "2026-07-09T17:20:47.157792",
    "MEAN_MOTION": 15.53409239,
    "ECCENTRICITY": 0.0004319,
    "INCLINATION": 98.1048,
    "RA_OF_ASC_NODE": 298.0124,
    "ARG_OF_PERICENTER": 223.3219,
    "MEAN_ANOMALY": 136.7693,
    "EPHEMERIS_TYPE": 0,
    "CLASSIFICATION_TYPE": "U",
    "NORAD_CAT_ID": 31797,
    "ELEMENT_SET_NO": 999,
    "REV_AT_EPOCH": 6043,
    "BSTAR": 0.0003051,
    "MEAN_MOTION_DOT": 0.00019219,
    "MEAN_MOTION_DDOT": 0
   }
  },
  {
   "norad": 39086,
   "name": "SARAL",
   "intl": "2013-009A",
   "group": "resource",
   "gcat": {
    "class": "C",
    "category": "SCI",
    "owner": "ISRO/CNES",
    "state": "IN"
   },
   "omm": {
    "OBJECT_NAME": "SARAL",
    "OBJECT_ID": "2013-009A",
    "EPOCH": "2026-07-09T19:19:55.644960",
    "MEAN_MOTION": 14.3289485,
    "ECCENTRICITY": 0.000137,
    "INCLINATION": 98.5554,
    "RA_OF_ASC_NODE": 17.0866,
    "ARG_OF_PERICENTER": 181.257,
    "MEAN_ANOMALY": 178.8611,
    "EPHEMERIS_TYPE": 0,
    "CLASSIFICATION_TYPE": "U",
    "NORAD_CAT_ID": 39086,
    "ELEMENT_SET_NO": 999,
    "REV_AT_EPOCH": 69884,
    "BSTAR": 0.00003652,
    "MEAN_MOTION_DOT": 5.6e-7,
    "MEAN_MOTION_DDOT": 0
   }
  },
  {
   "norad": 43831,
   "name": "SAUDISAT 5A",
   "intl": "2018-102A",
   "group": "resource",
   "gcat": {
    "class": "C",
    "category": "TECH",
    "owner": "KACST",
    "state": "SA"
   },
   "omm": {
    "OBJECT_NAME": "SAUDISAT 5A",
    "OBJECT_ID": "2018-102A",
    "EPOCH": "2026-07-09T21:16:30.549216",
    "MEAN_MOTION": 15.2828607,
    "ECCENTRICITY": 0.0010849,
    "INCLINATION": 97.3058,
    "RA_OF_ASC_NODE": 252.0313,
    "ARG_OF_PERICENTER": 60.3433,
    "MEAN_ANOMALY": 299.8886,
    "EPHEMERIS_TYPE": 0,
    "CLASSIFICATION_TYPE": "U",
    "NORAD_CAT_ID": 43831,
    "ELEMENT_SET_NO": 999,
    "REV_AT_EPOCH": 41914,
    "BSTAR": 0.00014023,
    "MEAN_MOTION_DOT": 0.00003796,
    "MEAN_MOTION_DDOT": 0
   }
  },
  {
   "norad": 43833,
   "name": "SAUDISAT 5B",
   "intl": "2018-102C",
   "group": "resource",
   "gcat": {
    "class": "C",
    "category": "TECH",
    "owner": "KACST",
    "state": "SA"
   },
   "omm": {
    "OBJECT_NAME": "SAUDISAT 5B",
    "OBJECT_ID": "2018-102C",
    "EPOCH": "2026-07-09T20:04:00.600384",
    "MEAN_MOTION": 15.28530434,
    "ECCENTRICITY": 0.001161,
    "INCLINATION": 97.3167,
    "RA_OF_ASC_NODE": 255.0928,
    "ARG_OF_PERICENTER": 61.9774,
    "MEAN_ANOMALY": 298.2639,
    "EPHEMERIS_TYPE": 0,
    "CLASSIFICATION_TYPE": "U",
    "NORAD_CAT_ID": 43833,
    "ELEMENT_SET_NO": 999,
    "REV_AT_EPOCH": 41925,
    "BSTAR": 0.00013207,
    "MEAN_MOTION_DOT": 0.00003598,
    "MEAN_MOTION_DDOT": 0
   }
  }
 ]
}
